P/2015 X1 (PANSTARRS),e,12.1525,161.7589,218.7705,3.637586,0.1420640,0.41941714,343.9843,05/17.0/2022,2000,g 16.0,4.0
# From MPEC 2021-P47
C/2015 XY1 (Lemmon),h,04/26.1060/2018,148.8518,281.5927,196.1538,1.000561,7.923076,2000,5.5,4.0
# From MPC 97498
P/2015 X3 (PANSTARRS),e,24.4016,77.2771,306.7224,5.005991,0.0879972,0.43977768,217.4443,05/17.0/2022,2000,g 15.0,4.0
# From MPC119995
C/2015 X5 (PANSTARRS),e,124.3127,122.3260,27.5683,100296,0.0000000,0.99993226,0.0000,12/27.7632/2017,2000,g  7.5,4.0
# From MPC115881
P/2015 X6 (PANSTARRS),e,4.5645,106.9390,329.8006,2.753004,0.2157713,0.17288413,124.4968,05/17.0/2022,2000,g 16.0,4.0
# From MPEC 2021-P47
C/2016 A1 (PANSTARRS),e,121.2091,128.1892,10.1280,26776,0.0000002,0.99980141,0.0000,11/21.2865/2017,2000,g  6.0,4.0
# From MPC100282
P/2016 A2 (Christensen),e,26.4028,291.6176,141.3139,4.753378,0.0951044,0.27065594,240.5678,05/17.0/2022,2000,g 11.5,4.0
# From MPC115881
P/2016 A3 (PANSTARRS),e,8.5103,187.2340,340.9775,7.883773,0.0445249,0.38612852,82.1975,05/17.0/2022,2000,g 10.0,4.0
# From MPC102098
P/2016 A7 (PANSTARRS),e,16.6048,221.4972,352.5704,5.034277,0.0872566,0.56445331,198.6611,05/17.0/2022,2000,g 16.0,4.0
# From MPC109143
P/2016 BA14 (PANSTARRS),e,18.8953,180.5180,351.9285,3.025728,0.1872661,0.66500927,62.4924,05/17.0/2022,2000,g 21.0,4.0
# From MPC110494
C/2016 E1 (PANSTARRS),h,06/03.8282/2017,131.8685,233.1288,47.4526,1.006168,8.173503,2000,6.5,4.0
# From MPEC 2021-P47
P/2016 G1 (PANSTARRS),e,10.9713,204.0222,111.1157,2.582303,0.2375162,0.21094288,100.0298,05/17.0/2022,2000,g 14.0,4.0
# From MPEC 2017-D91
P/2016 J1-A (PANSTARRS),e,14.3288,199.8120,46.9975,3.171981,0.1744649,0.22770615,14.8751,05/17.0/2022,2000,g 16.5,4.0
# From MPEC 2017-A77
P/2016 J1-B (PANSTARRS),e,14.3316,199.8169,46.8886,3.171612,0.1744954,0.22755689,15.0157,05/17.0/2022,2000,g 17.0,4.0
# From MPEC 2022-ED3
C/2016 M1 (PANSTARRS),e,90.9238,92.2420,209.9355,176212,0.0000000,0.99998743,0.0000,08/10.5612/2018,2000,g  5.0,4.0
# From MPEC 2021-N06
C/2016 N4 (MASTER),e,72.6531,353.9901,55.9541,5304,0.0000026,0.99939740,0.0000,09/17.4139/2017,2000,g  8.5,4.0
# From MPEC 2021-P47
C/2016 N6 (PANSTARRS),e,105.8479,298.9553,162.6251,1074,0.0000280,0.99752202,0.0000,07/17.7054/2018,2000,g  7.0,4.0
# From MPC102099
P/2016 P1 (PANSTARRS),e,24.4511,319.5672,270.2248,3.195623,0.1725324,0.28930487,58.7190,05/17.0/2022,2000,g 15.0,4.0
# From MPEC 2022-J42
C/2016 Q2 (PANSTARRS),h,05/12.1964/2021,109.3873,322.2999,84.5481,1.002113,7.081976,2000,6.0,4.0
# From MPC102955
C/2016 Q4 (Kowalski),e,7.2504,271.2968,99.5785,16.99411,0.0140688,0.58269619,22.0564,05/17.0/2022,2000,g  7.0,4.0
# From MPEC 2021-N06
C/2016 R2 (PANSTARRS),e,58.2873,80.5317,33.1086,477.3822,0.0000945,0.99455656,0.0000,05/09.0065/2018,2000,g  7.0,4.0
# From MPC109144
P/2016 R4 (Gibbs),e,10.8781,168.2616,174.0953,5.332130,0.0800484,0.47640203,169.9733,05/17.0/2022,2000,g 12.5,4.0
# From MPC105543
P/2016 S1 (PANSTARRS),e,94.7145,227.6170,273.2726,8.277351,0.0413873,0.71007876,78.1335,05/17.0/2022,2000,g 12.0,4.0
# From MPC110082
C/2016 T3 (PANSTARRS),e,22.7051,271.6787,194.5808,129.1254,0.0006717,0.97955228,0.0000,09/06.6810/2017,2000,g 10.5,4.0
# From MPC106345
P/2016 WM48 (Lemmon),e,117.5363,59.9205,36.1170,8.166831,0.0422303,0.78353901,80.6089,05/17.0/2022,2000,g 15.0,4.0
# From MPEC 2021-P47
C/2016 X1 (Lemmon),e,26.4549,256.3671,224.4732,1269,0.0000218,0.99404409,0.0000,04/27.8223/2019,2000,g  6.0,4.0
# From MPC108594
C/2017 A1 (PANSTARRS),e,49.8165,121.0122,1.9331,74.93357,0.0015195,0.96951464,2.7761,05/17.0/2022,2000,g 13.0,4.0
# From MPC114598
C/2017 AB5 (PANSTARRS),e,32.4579,42.6068,78.2895,2340,0.0000087,0.99606489,0.0000,02/14.4304/2018,2000,g  5.5,4.0
# From MPEC 2022-A21
C/2017 B3 (LINEAR),h,02/02.0064/2019,54.1593,2.1753,284.8209,1.000772,3.926849,2000,6.0,4.0
# From MPC103847
P/2017 B4 (PANSTARRS),e,20.0584,121.4578,11.0197,4.410520,0.1064068,0.36495152,359.9130,01/05.0/2017,2000,g 14.5,4.0
# From MPC104793
P/2017 D1 (Fuls),e,20.7615,82.1832,7.9652,4.828711,0.0928875,0.43656102,200.1044,05/17.0/2022,2000,g 14.0,4.0
# From MPC112391
C/2017 D2 (Barros),e,31.2574,330.9529,334.6413,13952,0.0000006,0.99982091,0.0000,07/14.6133/2017,2000,g 11.0,4.0
# From MPC114598
C/2017 D3 (ATLAS),h,04/27.4514/2017,125.5912,186.7197,340.8006,1.002020,4.964627,2000,8.0,4.0
# From MPC110495
P/2017 D4 (PANSTARRS),e,10.5408,264.9394,212.1754,7.553272,0.0474790,0.62859853,98.7714,05/17.0/2022,2000,g 13.0,4.0
# From MPC106346
C/2017 E1 (Borisov),h,04/10.3649/2017,14.5704,142.5757,152.7942,1.003259,0.907695,2000,14.0,4.0
# From MPEC 2021-P47
C/2017 E3 (PANSTARRS),h,06/07.2230/2017,70.6625,220.7981,334.4526,1.005823,5.935688,2000,6.5,4.0
# From MPC105239
C/2017 E4 (Lovejoy),h,04/23.2798/2017,87.9645,222.7659,87.0937,1.001482,0.492170,2000,17.0,4.0
# From MPC111769
C/2017 F1 (Lemmon),h,11/28.6443/2017,146.4614,158.7883,64.7208,1.001881,4.498009,2000,10.5,4.0
# From MPC114598
C/2017 F2 (PANSTARRS),h,11/25.9960/2017,42.5506,38.6987,134.9334,1.002129,6.927046,2000,7.5,4.0
# From MPC104794
P/2017 G1 (PANSTARRS),e,4.7800,249.6532,224.4141,7.278838,0.0501893,0.65326856,110.9778,05/17.0/2022,2000,g 13.5,4.0
# From MPC108595
P/2017 G2 (PANSTARRS),e,47.9541,79.8130,105.4708,8.055884,0.0431057,0.64757632,77.6865,05/17.0/2022,2000,g 13.0,4.0
# From MPEC 2021-P47
C/2017 G3 (PANSTARRS),e,159.0300,279.4511,73.0069,311.0677,0.0001796,0.99170351,0.0000,04/16.4896/2017,2000,g 14.0,4.0
# From MPC115882
C/2017 K1 (PANSTARRS),h,03/17.9914/2018,154.0209,225.7154,4.4351,1.003414,7.286504,2000,7.0,4.0
# From MPEC 2022-J42
C/2017 K2 (PANSTARRS),h,12/19.6832/2022,87.5602,88.2359,236.1954,1.000766,1.796989,2000,1.5,4.0
# From MPEC 2021-N06
P/2017 K3 (Gasparovic),e,4.2730,354.2873,253.4452,5.584251,0.0746890,0.57951352,135.4540,05/17.0/2022,2000,g 14.5,4.0
# From MPC114598
C/2017 K4 (ATLAS),e,16.6700,298.8978,15.3269,28.67397,0.0064191,0.90729127,10.2037,05/17.0/2022,2000,g 10.0,4.0
# From MPEC 2021-P47
C/2017 K5 (PANSTARRS),h,03/27.3223/2020,82.2409,102.3765,172.0594,1.005453,7.683235,2000,5.0,4.0
# From MPC114599
C/2017 K6 (Jacques),e,57.2271,84.9391,303.7818,1179,0.0000243,0.99830777,0.0000,01/03.9078/2018,2000,g 11.0,4.0
# From MPEC 2021-P47
C/2017 M3 (PANSTARRS),e,77.5940,7.0417,110.2665,166.9264,0.0004570,0.97214146,0.0000,04/28.4256/2017,2000,g 10.5,4.0
# From MPEC 2021-Y10
C/2017 M4 (ATLAS),h,01/17.9651/2019,105.6454,65.9348,167.6187,1.001394,3.253366,2000,6.0,4.0
# From MPC118841
C/2017 M5 (TOTAS),h,06/04.4539/2018,15.8662,216.2891,92.8406,1.005373,6.001547,2000,6.5,4.0
# From MPC114599
C/2017 O1 (ASASSN),e,39.9747,25.7209,20.8377,371.4647,0.0001377,0.99598576,0.0000,10/15.6583/2017,2000,g 11.0,4.0
# From MPC114599
P/2017 P1 (PANSTARRS),e,7.6911,221.3771,122.5863,7.908245,0.0443184,0.31101952,63.1572,05/17.0/2022,2000,g 10.0,4.0
# From MPC114599
C/2017 P2 (PANSTARRS),e,50.0481,165.4550,132.4884,2543,0.0000077,0.99902749,0.0000,12/06.1699/2017,2000,g 10.0,4.0
# From MPC108595
C/2017 S2 (PANSTARRS),e,12.6701,62.3353,306.0953,20.63358,0.0105158,0.82486463,18.0909,05/17.0/2022,2000,g 13.0,4.0
# From MPC114599
C/2017 S3 (PANSTARRS),h,08/16.4315/2018,99.2109,171.3181,255.8504,1.000086,0.206190,2000,12.9,4.0
# From MPC109591
C/2017 S6 (Catalina),h,02/26.1281/2018,152.8663,131.0800,134.9523,1.000842,1.549926,2000,12.5,4.0
# From MPC114599
C/2017 S7 (Lemmon),e,124.2243,262.7337,187.5129,6182,0.0000020,0.99876958,0.0000,05/23.7451/2017,2000,g  7.0,4.0
# From MPC114599
P/2017 S8 (PANSTARRS),e,29.8583,191.5259,254.8137,2.779459,0.2126982,0.39098146,333.9826,05/17.0/2022,2000,g 16.0,4.0
# From MPC107050
P/2017 S9 (PANSTARRS),e,14.1436,146.2238,237.6451,3.154736,0.1758974,0.30550729,309.6156,05/17.0/2022,2000,g 17.0,4.0
# From MPC114600
C/2017 T1 (Heinze),e,96.8879,102.4747,97.0129,11104,0.0000008,0.99994727,0.0000,02/20.7166/2018,2000,g 14.5,4.0
# From MPEC 2021-Y10
C/2017 T2 (PANSTARRS),e,57.2420,64.3897,92.9687,1817,0.0000127,0.99911109,0.0000,05/04.8046/2020,2000,g  5.0,4.0
# From MPC114600
C/2017 T3 (ATLAS),e,88.1925,230.1786,246.8176,1186,0.0000241,0.99930498,0.0000,07/18.9305/2018,2000,g 10.0,4.0
# From MPC115882
P/2017 TW13 (Lemmon),e,44.8495,322.2862,119.9207,7.137425,0.0516882,0.70991894,73.6916,05/17.0/2022,2000,g 15.0,2.0
# From MPC114600
C/2017 U2 (Fuls),e,95.3893,149.7099,147.8735,2723,0.0000069,0.99753427,0.0000,08/28.1802/2017,2000,g  9.0,4.0
# From MPC114600
P/2017 U3 (PANSTARRS),e,15.9190,165.1118,296.4441,4.926487,0.0901360,0.09916097,101.8503,05/17.0/2022,2000,g 11.0,4.0
# From MPEC 2021-P47
C/2017 U4 (PANSTARRS),h,09/22.2255/2018,158.2062,245.9227,158.9795,1.000469,7.721194,2000,7.0,4.0
# From MPC114600
C/2017 U5 (PANSTARRS),e,18.9790,163.0867,261.9921,16.89381,0.0141943,0.74451290,22.8511,05/17.0/2022,2000,g 12.0,4.0
# From MPEC 2022-GA9
C/2017 U7 (PANSTARRS),h,09/14.7299/2019,142.6013,276.2525,326.3779,1.000930,6.426367,2000,8.3,2.0
# From MPC114600
C/2017 W2 (Leonard),e,98.2030,312.8269,168.9135,13.62185,0.0196042,0.71028112,32.5130,05/17.0/2022,2000,g 11.0,4.0
# From MPC114601
P/2017 W3 (Gibbs),e,18.1668,210.2357,327.8444,7.836257,0.0449305,0.50653471,69.1701,05/17.0/2022,2000,g 10.5,4.0
# From MPEC 2021-R75
C/2017 X1 (PANSTARRS),e,31.3222,251.1418,283.2086,31.10797,0.0056806,0.84995447,8.1385,05/17.0/2022,2000,g 10.0,4.0
# From MPC117069
C/2017 Y1 (PANSTARRS),e,55.2576,307.5045,134.2466,1769,0.0000132,0.99790588,0.0000,08/31.5589/2017,2000,g 11.5,4.0
# From MPEC 2022-ED3
C/2017 Y2 (PANSTARRS),h,11/04.9809/2020,128.4242,65.9992,147.9254,1.001088,4.632953,2000,15.0,4.0
# From MPC111770
P/2017 Y3 (Leonard),e,27.5576,153.8430,67.6062,9.831480,0.0319724,0.86966406,49.7981,05/17.0/2022,2000,g 16.5,4.0
# From MPC114601
C/2018 A1 (PANSTARRS),e,53.6134,336.6587,96.1924,25.10447,0.0078357,0.90406599,13.0761,05/17.0/2022,2000,g 12.5,4.0
# From MPEC 2021-P47
C/2018 A3 (ATLAS),e,139.5367,194.2927,86.3585,395.4898,0.0001253,0.99171470,0.0000,01/11.6843/2019,2000,g  8.5,4.0
# From MPC114601
